<?xml version="1.0"?>
<gpx version="1.1" xmlns="http://www.topografix.com/GPX/1/1"><trk><name>Grand Balcon Nord (OSM relation 5329763)</name><trkseg>
<trkpt lat="45.901489" lon="6.885086"/>
<trkpt lat="45.901506" lon="6.885133"/>
<trkpt lat="45.901430" lon="6.885208"/>
<trkpt lat="45.901353" lon="6.885281"/>
<trkpt lat="45.901268" lon="6.885404"/>
<trkpt lat="45.901277" lon="6.885453"/>
<trkpt lat="45.901289" lon="6.885498"/>
<trkpt lat="45.901300" lon="6.885508"/>
<trkpt lat="45.901314" lon="6.885508"/>
<trkpt lat="45.901337" lon="6.885460"/>
<trkpt lat="45.901352" lon="6.885432"/>
<trkpt lat="45.901372" lon="6.885406"/>
<trkpt lat="45.901388" lon="6.885404"/>
<trkpt lat="45.901394" lon="6.885424"/>
<trkpt lat="45.901393" lon="6.885448"/>
<trkpt lat="45.901374" lon="6.885504"/>
<trkpt lat="45.901367" lon="6.885533"/>
<trkpt lat="45.901375" lon="6.885560"/>
<trkpt lat="45.901381" lon="6.885569"/>
<trkpt lat="45.901399" lon="6.885560"/>
<trkpt lat="45.901436" lon="6.885520"/>
<trkpt lat="45.901490" lon="6.885479"/>
<trkpt lat="45.901503" lon="6.885484"/>
<trkpt lat="45.901504" lon="6.885508"/>
<trkpt lat="45.901468" lon="6.885559"/>
<trkpt lat="45.901465" lon="6.885595"/>
<trkpt lat="45.901515" lon="6.885598"/>
<trkpt lat="45.901651" lon="6.885484"/>
<trkpt lat="45.901721" lon="6.885523"/>
<trkpt lat="45.901782" lon="6.885532"/>
<trkpt lat="45.901810" lon="6.885523"/>
<trkpt lat="45.901830" lon="6.885516"/>
<trkpt lat="45.901879" lon="6.885465"/>
<trkpt lat="45.901896" lon="6.885367"/>
<trkpt lat="45.901944" lon="6.885314"/>
<trkpt lat="45.902007" lon="6.885306"/>
<trkpt lat="45.902016" lon="6.885293"/>
<trkpt lat="45.902031" lon="6.885280"/>
<trkpt lat="45.902055" lon="6.885190"/>
<trkpt lat="45.902090" lon="6.885145"/>
<trkpt lat="45.902125" lon="6.885102"/>
<trkpt lat="45.902184" lon="6.885059"/>
<trkpt lat="45.902232" lon="6.885035"/>
<trkpt lat="45.902279" lon="6.884979"/>
<trkpt lat="45.902312" lon="6.884946"/>
<trkpt lat="45.902335" lon="6.884896"/>
<trkpt lat="45.902351" lon="6.884883"/>
<trkpt lat="45.902391" lon="6.884858"/>
<trkpt lat="45.902426" lon="6.884804"/>
<trkpt lat="45.902462" lon="6.884755"/>
<trkpt lat="45.902505" lon="6.884728"/>
<trkpt lat="45.902555" lon="6.884733"/>
<trkpt lat="45.902562" lon="6.884682"/>
<trkpt lat="45.902579" lon="6.884659"/>
<trkpt lat="45.902609" lon="6.884586"/>
<trkpt lat="45.902661" lon="6.884525"/>
<trkpt lat="45.902692" lon="6.884507"/>
<trkpt lat="45.902764" lon="6.884491"/>
<trkpt lat="45.902893" lon="6.884421"/>
<trkpt lat="45.902962" lon="6.884404"/>
<trkpt lat="45.903054" lon="6.884361"/>
<trkpt lat="45.903115" lon="6.884306"/>
<trkpt lat="45.903181" lon="6.884270"/>
<trkpt lat="45.903221" lon="6.884258"/>
<trkpt lat="45.903247" lon="6.884224"/>
<trkpt lat="45.903287" lon="6.884191"/>
<trkpt lat="45.903315" lon="6.884158"/>
<trkpt lat="45.903352" lon="6.884127"/>
<trkpt lat="45.903388" lon="6.884106"/>
<trkpt lat="45.903415" lon="6.884095"/>
<trkpt lat="45.903439" lon="6.884079"/>
<trkpt lat="45.903459" lon="6.884028"/>
<trkpt lat="45.903486" lon="6.883972"/>
<trkpt lat="45.903510" lon="6.883939"/>
<trkpt lat="45.903541" lon="6.883910"/>
<trkpt lat="45.903557" lon="6.883889"/>
<trkpt lat="45.903581" lon="6.883866"/>
<trkpt lat="45.903595" lon="6.883838"/>
<trkpt lat="45.903610" lon="6.883817"/>
<trkpt lat="45.903633" lon="6.883799"/>
<trkpt lat="45.903662" lon="6.883775"/>
<trkpt lat="45.903682" lon="6.883770"/>
<trkpt lat="45.903733" lon="6.883806"/>
<trkpt lat="45.903741" lon="6.883797"/>
<trkpt lat="45.903763" lon="6.883797"/>
<trkpt lat="45.903812" lon="6.883753"/>
<trkpt lat="45.903859" lon="6.883677"/>
<trkpt lat="45.903881" lon="6.883632"/>
<trkpt lat="45.903911" lon="6.883582"/>
<trkpt lat="45.903951" lon="6.883475"/>
<trkpt lat="45.903981" lon="6.883394"/>
<trkpt lat="45.904006" lon="6.883301"/>
<trkpt lat="45.904077" lon="6.883217"/>
<trkpt lat="45.904078" lon="6.883215"/>
<trkpt lat="45.904108" lon="6.883202"/>
<trkpt lat="45.904139" lon="6.883195"/>
<trkpt lat="45.904178" lon="6.883211"/>
<trkpt lat="45.904204" lon="6.883234"/>
<trkpt lat="45.904228" lon="6.883254"/>
<trkpt lat="45.904246" lon="6.883256"/>
<trkpt lat="45.904270" lon="6.883253"/>
<trkpt lat="45.904319" lon="6.883244"/>
<trkpt lat="45.904350" lon="6.883232"/>
<trkpt lat="45.904386" lon="6.883214"/>
<trkpt lat="45.904445" lon="6.883209"/>
<trkpt lat="45.904484" lon="6.883210"/>
<trkpt lat="45.904532" lon="6.883222"/>
<trkpt lat="45.904567" lon="6.883222"/>
<trkpt lat="45.904608" lon="6.883202"/>
<trkpt lat="45.904632" lon="6.883185"/>
<trkpt lat="45.904665" lon="6.883164"/>
<trkpt lat="45.904702" lon="6.883155"/>
<trkpt lat="45.904749" lon="6.883144"/>
<trkpt lat="45.904794" lon="6.883126"/>
<trkpt lat="45.904827" lon="6.883111"/>
<trkpt lat="45.904852" lon="6.883114"/>
<trkpt lat="45.904881" lon="6.883126"/>
<trkpt lat="45.904909" lon="6.883149"/>
<trkpt lat="45.904925" lon="6.883183"/>
<trkpt lat="45.904937" lon="6.883208"/>
<trkpt lat="45.904963" lon="6.883219"/>
<trkpt lat="45.904996" lon="6.883225"/>
<trkpt lat="45.905029" lon="6.883219"/>
<trkpt lat="45.905066" lon="6.883201"/>
<trkpt lat="45.905092" lon="6.883196"/>
<trkpt lat="45.905112" lon="6.883212"/>
<trkpt lat="45.905149" lon="6.883243"/>
<trkpt lat="45.905175" lon="6.883268"/>
<trkpt lat="45.905196" lon="6.883283"/>
<trkpt lat="45.905209" lon="6.883278"/>
<trkpt lat="45.905220" lon="6.883219"/>
<trkpt lat="45.905222" lon="6.883174"/>
<trkpt lat="45.905214" lon="6.883100"/>
<trkpt lat="45.905189" lon="6.883017"/>
<trkpt lat="45.905168" lon="6.882980"/>
<trkpt lat="45.905154" lon="6.882948"/>
<trkpt lat="45.905132" lon="6.882920"/>
<trkpt lat="45.905139" lon="6.882906"/>
<trkpt lat="45.905160" lon="6.882904"/>
<trkpt lat="45.905217" lon="6.882927"/>
<trkpt lat="45.905241" lon="6.882943"/>
<trkpt lat="45.905282" lon="6.882956"/>
<trkpt lat="45.905320" lon="6.882975"/>
<trkpt lat="45.905364" lon="6.883000"/>
<trkpt lat="45.905403" lon="6.883045"/>
<trkpt lat="45.905432" lon="6.883102"/>
<trkpt lat="45.905456" lon="6.883142"/>
<trkpt lat="45.905472" lon="6.883160"/>
<trkpt lat="45.905486" lon="6.883163"/>
<trkpt lat="45.905497" lon="6.883158"/>
<trkpt lat="45.905508" lon="6.883131"/>
<trkpt lat="45.905506" lon="6.883070"/>
<trkpt lat="45.905494" lon="6.882996"/>
<trkpt lat="45.905478" lon="6.882903"/>
<trkpt lat="45.905449" lon="6.882804"/>
<trkpt lat="45.905428" lon="6.882773"/>
<trkpt lat="45.905393" lon="6.882731"/>
<trkpt lat="45.905385" lon="6.882713"/>
<trkpt lat="45.905394" lon="6.882701"/>
<trkpt lat="45.905417" lon="6.882697"/>
<trkpt lat="45.905459" lon="6.882702"/>
<trkpt lat="45.905487" lon="6.882720"/>
<trkpt lat="45.905490" lon="6.882732"/>
<trkpt lat="45.905495" lon="6.882750"/>
<trkpt lat="45.905499" lon="6.882763"/>
<trkpt lat="45.905512" lon="6.882788"/>
<trkpt lat="45.905516" lon="6.882807"/>
<trkpt lat="45.905523" lon="6.882835"/>
<trkpt lat="45.905541" lon="6.882856"/>
<trkpt lat="45.905563" lon="6.882898"/>
<trkpt lat="45.905584" lon="6.882925"/>
<trkpt lat="45.905607" lon="6.882941"/>
<trkpt lat="45.905630" lon="6.882952"/>
<trkpt lat="45.905656" lon="6.882963"/>
<trkpt lat="45.905674" lon="6.882958"/>
<trkpt lat="45.905688" lon="6.882942"/>
<trkpt lat="45.905699" lon="6.882930"/>
<trkpt lat="45.905728" lon="6.882899"/>
<trkpt lat="45.905750" lon="6.882887"/>
<trkpt lat="45.905772" lon="6.882885"/>
<trkpt lat="45.905817" lon="6.882922"/>
<trkpt lat="45.905890" lon="6.883023"/>
<trkpt lat="45.905970" lon="6.883217"/>
<trkpt lat="45.906022" lon="6.883435"/>
<trkpt lat="45.906021" lon="6.883500"/>
<trkpt lat="45.906023" lon="6.883560"/>
<trkpt lat="45.906063" lon="6.883712"/>
<trkpt lat="45.906103" lon="6.883868"/>
<trkpt lat="45.906133" lon="6.884071"/>
<trkpt lat="45.906181" lon="6.884418"/>
<trkpt lat="45.906157" lon="6.884658"/>
<trkpt lat="45.906101" lon="6.884760"/>
<trkpt lat="45.906028" lon="6.884856"/>
<trkpt lat="45.905952" lon="6.884877"/>
<trkpt lat="45.905869" lon="6.884913"/>
<trkpt lat="45.905744" lon="6.884946"/>
<trkpt lat="45.905687" lon="6.884928"/>
<trkpt lat="45.905631" lon="6.884952"/>
<trkpt lat="45.905534" lon="6.885024"/>
<trkpt lat="45.905506" lon="6.885074"/>
<trkpt lat="45.905268" lon="6.885226"/>
<trkpt lat="45.905218" lon="6.885262"/>
<trkpt lat="45.905172" lon="6.885307"/>
<trkpt lat="45.905068" lon="6.885365"/>
<trkpt lat="45.905023" lon="6.885417"/>
<trkpt lat="45.904975" lon="6.885556"/>
<trkpt lat="45.904976" lon="6.885772"/>
<trkpt lat="45.905014" lon="6.886035"/>
<trkpt lat="45.905033" lon="6.886120"/>
<trkpt lat="45.905047" lon="6.886213"/>
<trkpt lat="45.905062" lon="6.886286"/>
<trkpt lat="45.905089" lon="6.886358"/>
<trkpt lat="45.905149" lon="6.886429"/>
<trkpt lat="45.905178" lon="6.886503"/>
<trkpt lat="45.905221" lon="6.886670"/>
<trkpt lat="45.905506" lon="6.887223"/>
<trkpt lat="45.905611" lon="6.887418"/>
<trkpt lat="45.905652" lon="6.887506"/>
<trkpt lat="45.905675" lon="6.887596"/>
<trkpt lat="45.905719" lon="6.887678"/>
<trkpt lat="45.905734" lon="6.887737"/>
<trkpt lat="45.905854" lon="6.887920"/>
<trkpt lat="45.905878" lon="6.887976"/>
<trkpt lat="45.905892" lon="6.888049"/>
<trkpt lat="45.905884" lon="6.888184"/>
<trkpt lat="45.905906" lon="6.888465"/>
<trkpt lat="45.905969" lon="6.888493"/>
<trkpt lat="45.905950" lon="6.888579"/>
<trkpt lat="45.905944" lon="6.888658"/>
<trkpt lat="45.906012" lon="6.888642"/>
<trkpt lat="45.906042" lon="6.888796"/>
<trkpt lat="45.906026" lon="6.888969"/>
<trkpt lat="45.906047" lon="6.889007"/>
<trkpt lat="45.906083" lon="6.889010"/>
<trkpt lat="45.906183" lon="6.888975"/>
<trkpt lat="45.906212" lon="6.889028"/>
<trkpt lat="45.906186" lon="6.889141"/>
<trkpt lat="45.906171" lon="6.889275"/>
<trkpt lat="45.906187" lon="6.889431"/>
<trkpt lat="45.906180" lon="6.889534"/>
<trkpt lat="45.906168" lon="6.889702"/>
<trkpt lat="45.906223" lon="6.889757"/>
<trkpt lat="45.906322" lon="6.889812"/>
<trkpt lat="45.906377" lon="6.889856"/>
<trkpt lat="45.906389" lon="6.889942"/>
<trkpt lat="45.906393" lon="6.890039"/>
<trkpt lat="45.906461" lon="6.890088"/>
<trkpt lat="45.906547" lon="6.890103"/>
<trkpt lat="45.906631" lon="6.890118"/>
<trkpt lat="45.906790" lon="6.890294"/>
<trkpt lat="45.906857" lon="6.890375"/>
<trkpt lat="45.906905" lon="6.890482"/>
<trkpt lat="45.907064" lon="6.890785"/>
<trkpt lat="45.907427" lon="6.891261"/>
<trkpt lat="45.907698" lon="6.891675"/>
<trkpt lat="45.907836" lon="6.891888"/>
<trkpt lat="45.907976" lon="6.892207"/>
<trkpt lat="45.907993" lon="6.892355"/>
<trkpt lat="45.908024" lon="6.892416"/>
<trkpt lat="45.908048" lon="6.892587"/>
<trkpt lat="45.908024" lon="6.892749"/>
<trkpt lat="45.908035" lon="6.892865"/>
<trkpt lat="45.908130" lon="6.892896"/>
<trkpt lat="45.908240" lon="6.892899"/>
<trkpt lat="45.908355" lon="6.893048"/>
<trkpt lat="45.908452" lon="6.893179"/>
<trkpt lat="45.908621" lon="6.893594"/>
<trkpt lat="45.908769" lon="6.894061"/>
<trkpt lat="45.908812" lon="6.894138"/>
<trkpt lat="45.908818" lon="6.894198"/>
<trkpt lat="45.908818" lon="6.894345"/>
<trkpt lat="45.908850" lon="6.894376"/>
<trkpt lat="45.908944" lon="6.894453"/>
<trkpt lat="45.909001" lon="6.894511"/>
<trkpt lat="45.909062" lon="6.894584"/>
<trkpt lat="45.909101" lon="6.894627"/>
<trkpt lat="45.909115" lon="6.894635"/>
<trkpt lat="45.909131" lon="6.894639"/>
<trkpt lat="45.909210" lon="6.894709"/>
<trkpt lat="45.909266" lon="6.894732"/>
<trkpt lat="45.909340" lon="6.894791"/>
<trkpt lat="45.909367" lon="6.894825"/>
<trkpt lat="45.909399" lon="6.894853"/>
<trkpt lat="45.909442" lon="6.894930"/>
<trkpt lat="45.909455" lon="6.894964"/>
<trkpt lat="45.909456" lon="6.894994"/>
<trkpt lat="45.909461" lon="6.895013"/>
<trkpt lat="45.909523" lon="6.895136"/>
<trkpt lat="45.909594" lon="6.895193"/>
<trkpt lat="45.909629" lon="6.895262"/>
<trkpt lat="45.909710" lon="6.895309"/>
<trkpt lat="45.909723" lon="6.895327"/>
<trkpt lat="45.909745" lon="6.895344"/>
<trkpt lat="45.909786" lon="6.895343"/>
<trkpt lat="45.909853" lon="6.895371"/>
<trkpt lat="45.909953" lon="6.895411"/>
<trkpt lat="45.909995" lon="6.895452"/>
<trkpt lat="45.910009" lon="6.895479"/>
<trkpt lat="45.910037" lon="6.895561"/>
<trkpt lat="45.910064" lon="6.895612"/>
<trkpt lat="45.910088" lon="6.895707"/>
<trkpt lat="45.910150" lon="6.895864"/>
<trkpt lat="45.910170" lon="6.895915"/>
<trkpt lat="45.910175" lon="6.895956"/>
<trkpt lat="45.910189" lon="6.895989"/>
<trkpt lat="45.910198" lon="6.895967"/>
<trkpt lat="45.910199" lon="6.895909"/>
<trkpt lat="45.910207" lon="6.895840"/>
<trkpt lat="45.910226" lon="6.895849"/>
<trkpt lat="45.910252" lon="6.895887"/>
<trkpt lat="45.910258" lon="6.895949"/>
<trkpt lat="45.910269" lon="6.895951"/>
<trkpt lat="45.910288" lon="6.895923"/>
<trkpt lat="45.910298" lon="6.895923"/>
<trkpt lat="45.910305" lon="6.895930"/>
<trkpt lat="45.910309" lon="6.895958"/>
<trkpt lat="45.910311" lon="6.896051"/>
<trkpt lat="45.910336" lon="6.896083"/>
<trkpt lat="45.910394" lon="6.896103"/>
<trkpt lat="45.910412" lon="6.896117"/>
<trkpt lat="45.910441" lon="6.896168"/>
<trkpt lat="45.910469" lon="6.896177"/>
<trkpt lat="45.910516" lon="6.896230"/>
<trkpt lat="45.910637" lon="6.896293"/>
<trkpt lat="45.910953" lon="6.896325"/>
<trkpt lat="45.911292" lon="6.896367"/>
<trkpt lat="45.911325" lon="6.896439"/>
<trkpt lat="45.911423" lon="6.896500"/>
<trkpt lat="45.911648" lon="6.896542"/>
<trkpt lat="45.911940" lon="6.896791"/>
<trkpt lat="45.912341" lon="6.897152"/>
<trkpt lat="45.912521" lon="6.897253"/>
<trkpt lat="45.912824" lon="6.897374"/>
<trkpt lat="45.912951" lon="6.897507"/>
<trkpt lat="45.912965" lon="6.897580"/>
<trkpt lat="45.913001" lon="6.897661"/>
<trkpt lat="45.913030" lon="6.897668"/>
<trkpt lat="45.913039" lon="6.897671"/>
<trkpt lat="45.913088" lon="6.897650"/>
<trkpt lat="45.913133" lon="6.897639"/>
<trkpt lat="45.913165" lon="6.897642"/>
<trkpt lat="45.913213" lon="6.897680"/>
<trkpt lat="45.913253" lon="6.897722"/>
<trkpt lat="45.913295" lon="6.897751"/>
<trkpt lat="45.913335" lon="6.897752"/>
<trkpt lat="45.913413" lon="6.897726"/>
<trkpt lat="45.913434" lon="6.897730"/>
<trkpt lat="45.913456" lon="6.897746"/>
<trkpt lat="45.913485" lon="6.897785"/>
<trkpt lat="45.913509" lon="6.897819"/>
<trkpt lat="45.913542" lon="6.897849"/>
<trkpt lat="45.913588" lon="6.897869"/>
<trkpt lat="45.913606" lon="6.897889"/>
<trkpt lat="45.913631" lon="6.897917"/>
<trkpt lat="45.913653" lon="6.897925"/>
<trkpt lat="45.913663" lon="6.897937"/>
<trkpt lat="45.913678" lon="6.897978"/>
<trkpt lat="45.913695" lon="6.897999"/>
<trkpt lat="45.913721" lon="6.898011"/>
<trkpt lat="45.913741" lon="6.898025"/>
<trkpt lat="45.913760" lon="6.898032"/>
<trkpt lat="45.913782" lon="6.898029"/>
<trkpt lat="45.913888" lon="6.898021"/>
<trkpt lat="45.913921" lon="6.898021"/>
<trkpt lat="45.913976" lon="6.898033"/>
<trkpt lat="45.914009" lon="6.898037"/>
<trkpt lat="45.914095" lon="6.898048"/>
<trkpt lat="45.914126" lon="6.898056"/>
<trkpt lat="45.914151" lon="6.898071"/>
<trkpt lat="45.914174" lon="6.898092"/>
<trkpt lat="45.914194" lon="6.898127"/>
<trkpt lat="45.914211" lon="6.898162"/>
<trkpt lat="45.914233" lon="6.898189"/>
<trkpt lat="45.914306" lon="6.898263"/>
<trkpt lat="45.914348" lon="6.898308"/>
<trkpt lat="45.914377" lon="6.898347"/>
<trkpt lat="45.914394" lon="6.898385"/>
<trkpt lat="45.914429" lon="6.898473"/>
<trkpt lat="45.914446" lon="6.898513"/>
<trkpt lat="45.914483" lon="6.898579"/>
<trkpt lat="45.914535" lon="6.898662"/>
<trkpt lat="45.914603" lon="6.898749"/>
<trkpt lat="45.914640" lon="6.898804"/>
<trkpt lat="45.914670" lon="6.898835"/>
<trkpt lat="45.914698" lon="6.898854"/>
<trkpt lat="45.914727" lon="6.898894"/>
<trkpt lat="45.914750" lon="6.898935"/>
<trkpt lat="45.914782" lon="6.898967"/>
<trkpt lat="45.914810" lon="6.899008"/>
<trkpt lat="45.914849" lon="6.899063"/>
<trkpt lat="45.914878" lon="6.899094"/>
<trkpt lat="45.914916" lon="6.899126"/>
<trkpt lat="45.914980" lon="6.899183"/>
<trkpt lat="45.915039" lon="6.899255"/>
<trkpt lat="45.915080" lon="6.899286"/>
<trkpt lat="45.915114" lon="6.899332"/>
<trkpt lat="45.915123" lon="6.899366"/>
<trkpt lat="45.915144" lon="6.899395"/>
<trkpt lat="45.915184" lon="6.899436"/>
<trkpt lat="45.915203" lon="6.899493"/>
<trkpt lat="45.915214" lon="6.899574"/>
<trkpt lat="45.915224" lon="6.899612"/>
<trkpt lat="45.915240" lon="6.899637"/>
<trkpt lat="45.915249" lon="6.899670"/>
<trkpt lat="45.915279" lon="6.899706"/>
<trkpt lat="45.915435" lon="6.899921"/>
<trkpt lat="45.915592" lon="6.900119"/>
<trkpt lat="45.915672" lon="6.900258"/>
<trkpt lat="45.915757" lon="6.900384"/>
<trkpt lat="45.915851" lon="6.900424"/>
<trkpt lat="45.915921" lon="6.900630"/>
<trkpt lat="45.916004" lon="6.900648"/>
<trkpt lat="45.916207" lon="6.900976"/>
<trkpt lat="45.916382" lon="6.901116"/>
<trkpt lat="45.916455" lon="6.901240"/>
<trkpt lat="45.916544" lon="6.901334"/>
<trkpt lat="45.916630" lon="6.901348"/>
<trkpt lat="45.916721" lon="6.901443"/>
<trkpt lat="45.916833" lon="6.901545"/>
<trkpt lat="45.916881" lon="6.901673"/>
<trkpt lat="45.917065" lon="6.901956"/>
<trkpt lat="45.917099" lon="6.902152"/>
<trkpt lat="45.917125" lon="6.902325"/>
<trkpt lat="45.917122" lon="6.902470"/>
<trkpt lat="45.917157" lon="6.902718"/>
<trkpt lat="45.917206" lon="6.902842"/>
<trkpt lat="45.917322" lon="6.902878"/>
<trkpt lat="45.917512" lon="6.902827"/>
<trkpt lat="45.917772" lon="6.902695"/>
<trkpt lat="45.917854" lon="6.902661"/>
<trkpt lat="45.917958" lon="6.902667"/>
<trkpt lat="45.918228" lon="6.902892"/>
<trkpt lat="45.918241" lon="6.902984"/>
<trkpt lat="45.918208" lon="6.903087"/>
<trkpt lat="45.918221" lon="6.903199"/>
<trkpt lat="45.918270" lon="6.903256"/>
<trkpt lat="45.918314" lon="6.903403"/>
<trkpt lat="45.918357" lon="6.903483"/>
<trkpt lat="45.918381" lon="6.903625"/>
<trkpt lat="45.918452" lon="6.903774"/>
<trkpt lat="45.918571" lon="6.903957"/>
<trkpt lat="45.918850" lon="6.904098"/>
<trkpt lat="45.918966" lon="6.904225"/>
<trkpt lat="45.919152" lon="6.904530"/>
<trkpt lat="45.919221" lon="6.904690"/>
<trkpt lat="45.919251" lon="6.904814"/>
<trkpt lat="45.919417" lon="6.905014"/>
<trkpt lat="45.919516" lon="6.905091"/>
<trkpt lat="45.919653" lon="6.905168"/>
<trkpt lat="45.919774" lon="6.905162"/>
<trkpt lat="45.919952" lon="6.905271"/>
<trkpt lat="45.920109" lon="6.905355"/>
<trkpt lat="45.920236" lon="6.905268"/>
<trkpt lat="45.920641" lon="6.905188"/>
<trkpt lat="45.920780" lon="6.905245"/>
<trkpt lat="45.920848" lon="6.905253"/>
<trkpt lat="45.920951" lon="6.905264"/>
<trkpt lat="45.921045" lon="6.905318"/>
<trkpt lat="45.921193" lon="6.905470"/>
<trkpt lat="45.921425" lon="6.905482"/>
<trkpt lat="45.921634" lon="6.905456"/>
<trkpt lat="45.922049" lon="6.905559"/>
<trkpt lat="45.922148" lon="6.905541"/>
<trkpt lat="45.922272" lon="6.905438"/>
<trkpt lat="45.922464" lon="6.905441"/>
<trkpt lat="45.922564" lon="6.905419"/>
<trkpt lat="45.922632" lon="6.905444"/>
<trkpt lat="45.922979" lon="6.905343"/>
<trkpt lat="45.923088" lon="6.905326"/>
<trkpt lat="45.923138" lon="6.905358"/>
<trkpt lat="45.923167" lon="6.905334"/>
<trkpt lat="45.923286" lon="6.905334"/>
<trkpt lat="45.923388" lon="6.905294"/>
<trkpt lat="45.923211" lon="6.905559"/>
<trkpt lat="45.923395" lon="6.905538"/>
<trkpt lat="45.923307" lon="6.905692"/>
<trkpt lat="45.923325" lon="6.905717"/>
<trkpt lat="45.923446" lon="6.905656"/>
<trkpt lat="45.923526" lon="6.905657"/>
<trkpt lat="45.923599" lon="6.905599"/>
<trkpt lat="45.923571" lon="6.905711"/>
<trkpt lat="45.923500" lon="6.905779"/>
<trkpt lat="45.923463" lon="6.905872"/>
<trkpt lat="45.923381" lon="6.905904"/>
<trkpt lat="45.923436" lon="6.905959"/>
<trkpt lat="45.923512" lon="6.905923"/>
<trkpt lat="45.923493" lon="6.906016"/>
<trkpt lat="45.923340" lon="6.906041"/>
<trkpt lat="45.923494" lon="6.906141"/>
<trkpt lat="45.923490" lon="6.906164"/>
<trkpt lat="45.923328" lon="6.906177"/>
<trkpt lat="45.923323" lon="6.906198"/>
<trkpt lat="45.923479" lon="6.906291"/>
<trkpt lat="45.923612" lon="6.906224"/>
<trkpt lat="45.923724" lon="6.906133"/>
<trkpt lat="45.923911" lon="6.905866"/>
<trkpt lat="45.924135" lon="6.905807"/>
<trkpt lat="45.924346" lon="6.905912"/>
<trkpt lat="45.924573" lon="6.906032"/>
<trkpt lat="45.924868" lon="6.906362"/>
<trkpt lat="45.925159" lon="6.906610"/>
<trkpt lat="45.925332" lon="6.906667"/>
<trkpt lat="45.925467" lon="6.906725"/>
<trkpt lat="45.925572" lon="6.906726"/>
<trkpt lat="45.925839" lon="6.906899"/>
<trkpt lat="45.925951" lon="6.907034"/>
<trkpt lat="45.926006" lon="6.907199"/>
<trkpt lat="45.926293" lon="6.907379"/>
<trkpt lat="45.926529" lon="6.907679"/>
<trkpt lat="45.926884" lon="6.908186"/>
<trkpt lat="45.927003" lon="6.908315"/>
<trkpt lat="45.927118" lon="6.908468"/>
<trkpt lat="45.927210" lon="6.908591"/>
<trkpt lat="45.927416" lon="6.908653"/>
<trkpt lat="45.927441" lon="6.908795"/>
<trkpt lat="45.927433" lon="6.908899"/>
<trkpt lat="45.927532" lon="6.909154"/>
<trkpt lat="45.927680" lon="6.909239"/>
<trkpt lat="45.928003" lon="6.909586"/>
<trkpt lat="45.928050" lon="6.909724"/>
<trkpt lat="45.928170" lon="6.909908"/>
<trkpt lat="45.928246" lon="6.910036"/>
<trkpt lat="45.928389" lon="6.910361"/>
<trkpt lat="45.928468" lon="6.910593"/>
<trkpt lat="45.928531" lon="6.911026"/>
<trkpt lat="45.928495" lon="6.911294"/>
<trkpt lat="45.928493" lon="6.911326"/>
<trkpt lat="45.928502" lon="6.911361"/>
<trkpt lat="45.928506" lon="6.911395"/>
<trkpt lat="45.928501" lon="6.911422"/>
<trkpt lat="45.928486" lon="6.911465"/>
<trkpt lat="45.928452" lon="6.911526"/>
<trkpt lat="45.928439" lon="6.911563"/>
<trkpt lat="45.928436" lon="6.911600"/>
<trkpt lat="45.928440" lon="6.911649"/>
<trkpt lat="45.928444" lon="6.911694"/>
<trkpt lat="45.928445" lon="6.911739"/>
<trkpt lat="45.928436" lon="6.911787"/>
<trkpt lat="45.928424" lon="6.911825"/>
<trkpt lat="45.928389" lon="6.911898"/>
<trkpt lat="45.928352" lon="6.911948"/>
<trkpt lat="45.928331" lon="6.912003"/>
<trkpt lat="45.928333" lon="6.912053"/>
<trkpt lat="45.928321" lon="6.912152"/>
<trkpt lat="45.928332" lon="6.912210"/>
<trkpt lat="45.928347" lon="6.912256"/>
<trkpt lat="45.928372" lon="6.912310"/>
<trkpt lat="45.928415" lon="6.912365"/>
<trkpt lat="45.928441" lon="6.912404"/>
<trkpt lat="45.928460" lon="6.912442"/>
<trkpt lat="45.928471" lon="6.912468"/>
<trkpt lat="45.928474" lon="6.912494"/>
<trkpt lat="45.928471" lon="6.912519"/>
<trkpt lat="45.928467" lon="6.912538"/>
<trkpt lat="45.928467" lon="6.912567"/>
<trkpt lat="45.928470" lon="6.912590"/>
<trkpt lat="45.928480" lon="6.912659"/>
<trkpt lat="45.928508" lon="6.912729"/>
<trkpt lat="45.928529" lon="6.912782"/>
<trkpt lat="45.928552" lon="6.912857"/>
<trkpt lat="45.928574" lon="6.912949"/>
<trkpt lat="45.928582" lon="6.912981"/>
<trkpt lat="45.928590" lon="6.912991"/>
<trkpt lat="45.928607" lon="6.913006"/>
<trkpt lat="45.928653" lon="6.912954"/>
<trkpt lat="45.928658" lon="6.912879"/>
<trkpt lat="45.928689" lon="6.912759"/>
<trkpt lat="45.928713" lon="6.912751"/>
<trkpt lat="45.928738" lon="6.912792"/>
<trkpt lat="45.928762" lon="6.912901"/>
<trkpt lat="45.928786" lon="6.912850"/>
<trkpt lat="45.928781" lon="6.912706"/>
<trkpt lat="45.928806" lon="6.912634"/>
<trkpt lat="45.928867" lon="6.912819"/>
<trkpt lat="45.928893" lon="6.912798"/>
<trkpt lat="45.928894" lon="6.912732"/>
<trkpt lat="45.928966" lon="6.912975"/>
<trkpt lat="45.929000" lon="6.912888"/>
<trkpt lat="45.929061" lon="6.912877"/>
<trkpt lat="45.929032" lon="6.912975"/>
<trkpt lat="45.929045" lon="6.913124"/>
<trkpt lat="45.929109" lon="6.913063"/>
<trkpt lat="45.929081" lon="6.913273"/>
<trkpt lat="45.929167" lon="6.913226"/>
<trkpt lat="45.929135" lon="6.913399"/>
<trkpt lat="45.929135" lon="6.913564"/>
<trkpt lat="45.929240" lon="6.913416"/>
<trkpt lat="45.929238" lon="6.913709"/>
<trkpt lat="45.929266" lon="6.913847"/>
<trkpt lat="45.929097" lon="6.914295"/>
<trkpt lat="45.929021" lon="6.914569"/>
<trkpt lat="45.928987" lon="6.914611"/>
<trkpt lat="45.928905" lon="6.914814"/>
<trkpt lat="45.928600" lon="6.914820"/>
<trkpt lat="45.928351" lon="6.915022"/>
<trkpt lat="45.928035" lon="6.915182"/>
<trkpt lat="45.928415" lon="6.915324"/>
<trkpt lat="45.928307" lon="6.915441"/>
<trkpt lat="45.928873" lon="6.915569"/>
<trkpt lat="45.929411" lon="6.915683"/>
<trkpt lat="45.929365" lon="6.915762"/>
<trkpt lat="45.929550" lon="6.915742"/>
<trkpt lat="45.929573" lon="6.915843"/>
<trkpt lat="45.929363" lon="6.916053"/>
<trkpt lat="45.929131" lon="6.916188"/>
<trkpt lat="45.928836" lon="6.916305"/>
<trkpt lat="45.928375" lon="6.916467"/>
<trkpt lat="45.928912" lon="6.916698"/>
<trkpt lat="45.929145" lon="6.916716"/>
<trkpt lat="45.929231" lon="6.916760"/>
<trkpt lat="45.929340" lon="6.916755"/>
<trkpt lat="45.929669" lon="6.916741"/>
<trkpt lat="45.929984" lon="6.916696"/>
<trkpt lat="45.930164" lon="6.916509"/>
<trkpt lat="45.930448" lon="6.916352"/>
<trkpt lat="45.930758" lon="6.916503"/>
<trkpt lat="45.931010" lon="6.916679"/>
<trkpt lat="45.931087" lon="6.916703"/>
<trkpt lat="45.931152" lon="6.916698"/>
<trkpt lat="45.931218" lon="6.916668"/>
<trkpt lat="45.931340" lon="6.916650"/>
<trkpt lat="45.931506" lon="6.916604"/>
<trkpt lat="45.931557" lon="6.916601"/>
<trkpt lat="45.931612" lon="6.916625"/>
<trkpt lat="45.931688" lon="6.916641"/>
<trkpt lat="45.931741" lon="6.916662"/>
<trkpt lat="45.931804" lon="6.916668"/>
<trkpt lat="45.931846" lon="6.916686"/>
<trkpt lat="45.931892" lon="6.916696"/>
<trkpt lat="45.932027" lon="6.916718"/>
<trkpt lat="45.932121" lon="6.916727"/>
<trkpt lat="45.932171" lon="6.916719"/>
<trkpt lat="45.932203" lon="6.916695"/>
<trkpt lat="45.932214" lon="6.916698"/>
<trkpt lat="45.932247" lon="6.916716"/>
<trkpt lat="45.932261" lon="6.916717"/>
<trkpt lat="45.932275" lon="6.916706"/>
<trkpt lat="45.932301" lon="6.916645"/>
<trkpt lat="45.932360" lon="6.916571"/>
<trkpt lat="45.932368" lon="6.916529"/>
<trkpt lat="45.932377" lon="6.916451"/>
<trkpt lat="45.932441" lon="6.916171"/>
<trkpt lat="45.932471" lon="6.916058"/>
<trkpt lat="45.932505" lon="6.915973"/>
<trkpt lat="45.932514" lon="6.915856"/>
<trkpt lat="45.932530" lon="6.915843"/>
<trkpt lat="45.932547" lon="6.915850"/>
<trkpt lat="45.932554" lon="6.915883"/>
<trkpt lat="45.932565" lon="6.915898"/>
<trkpt lat="45.932631" lon="6.915935"/>
<trkpt lat="45.932676" lon="6.916001"/>
<trkpt lat="45.932719" lon="6.916065"/>
<trkpt lat="45.932822" lon="6.916371"/>
<trkpt lat="45.932869" lon="6.916445"/>
<trkpt lat="45.932890" lon="6.916521"/>
<trkpt lat="45.932905" lon="6.916592"/>
<trkpt lat="45.932915" lon="6.916771"/>
<trkpt lat="45.932927" lon="6.916805"/>
<trkpt lat="45.932935" lon="6.916811"/>
<trkpt lat="45.932944" lon="6.916818"/>
<trkpt lat="45.932957" lon="6.916847"/>
<trkpt lat="45.932974" lon="6.916886"/>
<trkpt lat="45.932991" lon="6.916901"/>
<trkpt lat="45.933005" lon="6.916855"/>
<trkpt lat="45.933066" lon="6.916644"/>
<trkpt lat="45.933079" lon="6.916624"/>
<trkpt lat="45.933089" lon="6.916619"/>
<trkpt lat="45.933174" lon="6.916993"/>
<trkpt lat="45.933186" lon="6.917021"/>
<trkpt lat="45.933203" lon="6.917022"/>
<trkpt lat="45.933209" lon="6.917116"/>
<trkpt lat="45.933211" lon="6.917172"/>
<trkpt lat="45.933214" lon="6.917222"/>
<trkpt lat="45.933206" lon="6.917285"/>
<trkpt lat="45.933185" lon="6.917326"/>
<trkpt lat="45.933136" lon="6.917342"/>
<trkpt lat="45.933068" lon="6.917349"/>
<trkpt lat="45.932868" lon="6.917307"/>
<trkpt lat="45.932614" lon="6.917253"/>
<trkpt lat="45.932569" lon="6.917248"/>
<trkpt lat="45.932556" lon="6.917248"/>
<trkpt lat="45.932544" lon="6.917253"/>
<trkpt lat="45.932486" lon="6.917321"/>
<trkpt lat="45.932471" lon="6.917326"/>
<trkpt lat="45.932449" lon="6.917327"/>
<trkpt lat="45.932398" lon="6.917328"/>
<trkpt lat="45.932232" lon="6.917348"/>
<trkpt lat="45.932107" lon="6.917413"/>
<trkpt lat="45.932001" lon="6.917556"/>
<trkpt lat="45.931967" lon="6.917585"/>
<trkpt lat="45.931900" lon="6.917602"/>
<trkpt lat="45.931814" lon="6.917624"/>
</trkseg></trk></gpx>
