<?xml version="1.0" encoding="UTF-8" standalone="no"?>
<gpx xmlns="http://www.topografix.com/GPX/1/1" version="1.1" xmlns:xsi="http://www.w3.org/2001/XMLSchema-instance" xsi:schemaLocation="http://www.topografix.com/GPX/1/1 http://www.topografix.com/GPX/1/1/gpx.xsd" creator="Cirkwi"><metadata><name><![CDATA[Colombaz]]></name><desc><![CDATA[Une escapade idéale pour retrouver les alpages à 1 500 mètres d'altitude. Un belvédère magnifique sur l'ensemble du massif du Mont-Blanc dont le sommet vous apparaîtra entre les Dômes de Miage et l'aiguille de Bionnassay.Difficulté : facile Altitude la plus haute : 1 500 m Dénivelé : 330 m Départ : hameau du Baptieu]]></desc><author><name><![CDATA[Office de Tourisme des Contamines]]></name></author><link href="http://fichier0.cirkwi.com/image/photo/circuit/1300x1300/550540/fr/0.jpg"></link><time>2024-05-07T07:19:22Z</time></metadata><trk><trkseg><trkpt lat="45.81293" lon="6.72137"><ele>1194.77</ele></trkpt><trkpt lat="45.81314" lon="6.72136"><ele>1197.1</ele></trkpt><trkpt lat="45.81332" lon="6.72131"><ele>1199.48</ele></trkpt><trkpt lat="45.81353" lon="6.72112"><ele>1203.84</ele></trkpt><trkpt lat="45.81365" lon="6.72084"><ele>1208.5</ele></trkpt><trkpt lat="45.81376" lon="6.72061"><ele>1211.53</ele></trkpt><trkpt lat="45.81391" lon="6.72038"><ele>1215.23</ele></trkpt><trkpt lat="45.81391" lon="6.72013"><ele>1217.83</ele></trkpt><trkpt lat="45.81376" lon="6.71999"><ele>1220.69</ele></trkpt><trkpt lat="45.81356" lon="6.72008"><ele>1221.7</ele></trkpt><trkpt lat="45.81338" lon="6.72019"><ele>1222.88</ele></trkpt><trkpt lat="45.81319" lon="6.72027"><ele>1223.45</ele></trkpt><trkpt lat="45.81299" lon="6.72017"><ele>1227.83</ele></trkpt><trkpt lat="45.81282" lon="6.72007"><ele>1233.08</ele></trkpt><trkpt lat="45.81264" lon="6.71996"><ele>1235.64</ele></trkpt><trkpt lat="45.8126" lon="6.71978"><ele>1240.17</ele></trkpt><trkpt lat="45.81279" lon="6.71973"><ele>1242.09</ele></trkpt><trkpt lat="45.81297" lon="6.71956"><ele>1244.48</ele></trkpt><trkpt lat="45.81314" lon="6.71936"><ele>1247.98</ele></trkpt><trkpt lat="45.81333" lon="6.71915"><ele>1250.44</ele></trkpt><trkpt lat="45.81351" lon="6.71891"><ele>1250.55</ele></trkpt><trkpt lat="45.81368" lon="6.71872"><ele>1252.23</ele></trkpt><trkpt lat="45.81387" lon="6.71854"><ele>1253.44</ele></trkpt><trkpt lat="45.81406" lon="6.71839"><ele>1255.46</ele></trkpt><trkpt lat="45.81427" lon="6.71833"><ele>1254.07</ele></trkpt><trkpt lat="45.81428" lon="6.7181"><ele>1259.11</ele></trkpt><trkpt lat="45.81407" lon="6.71812"><ele>1262.02</ele></trkpt><trkpt lat="45.81386" lon="6.71816"><ele>1263.67</ele></trkpt><trkpt lat="45.81365" lon="6.71819"><ele>1265.99</ele></trkpt><trkpt lat="45.81346" lon="6.7182"><ele>1270.24</ele></trkpt><trkpt lat="45.81325" lon="6.71827"><ele>1272.32</ele></trkpt><trkpt lat="45.81302" lon="6.7183"><ele>1274.93</ele></trkpt><trkpt lat="45.81282" lon="6.7183"><ele>1276.31</ele></trkpt><trkpt lat="45.81263" lon="6.71818"><ele>1278.54</ele></trkpt><trkpt lat="45.81242" lon="6.71809"><ele>1281.7</ele></trkpt><trkpt lat="45.81223" lon="6.71805"><ele>1282.73</ele></trkpt><trkpt lat="45.81206" lon="6.71791"><ele>1286.14</ele></trkpt><trkpt lat="45.81217" lon="6.71774"><ele>1291.87</ele></trkpt><trkpt lat="45.81236" lon="6.71771"><ele>1292.35</ele></trkpt><trkpt lat="45.81257" lon="6.71766"><ele>1295.2</ele></trkpt><trkpt lat="45.81279" lon="6.71762"><ele>1296.23</ele></trkpt><trkpt lat="45.813" lon="6.71759"><ele>1295.45</ele></trkpt><trkpt lat="45.81322" lon="6.71751"><ele>1297.11</ele></trkpt><trkpt lat="45.81343" lon="6.71739"><ele>1299.77</ele></trkpt><trkpt lat="45.81362" lon="6.71725"><ele>1302.52</ele></trkpt><trkpt lat="45.81381" lon="6.71711"><ele>1304.03</ele></trkpt><trkpt lat="45.814" lon="6.71697"><ele>1307.15</ele></trkpt><trkpt lat="45.81419" lon="6.71683"><ele>1305.71</ele></trkpt><trkpt lat="45.8142" lon="6.71664"><ele>1311.66</ele></trkpt><trkpt lat="45.81399" lon="6.71671"><ele>1316.96</ele></trkpt><trkpt lat="45.81378" lon="6.71681"><ele>1317.18</ele></trkpt><trkpt lat="45.81357" lon="6.71689"><ele>1319.01</ele></trkpt><trkpt lat="45.81337" lon="6.71695"><ele>1318.07</ele></trkpt><trkpt lat="45.81317" lon="6.71689"><ele>1322.82</ele></trkpt><trkpt lat="45.81297" lon="6.71675"><ele>1329.06</ele></trkpt><trkpt lat="45.81277" lon="6.71673"><ele>1329.68</ele></trkpt><trkpt lat="45.81258" lon="6.7167"><ele>1331.49</ele></trkpt><trkpt lat="45.81239" lon="6.7166"><ele>1334.41</ele></trkpt><trkpt lat="45.81221" lon="6.71649"><ele>1338.72</ele></trkpt><trkpt lat="45.81204" lon="6.71636"><ele>1341.87</ele></trkpt><trkpt lat="45.81184" lon="6.71619"><ele>1346.04</ele></trkpt><trkpt lat="45.81165" lon="6.71604"><ele>1347.66</ele></trkpt><trkpt lat="45.81147" lon="6.71586"><ele>1352.35</ele></trkpt><trkpt lat="45.81131" lon="6.71567"><ele>1355.27</ele></trkpt><trkpt lat="45.8112" lon="6.71545"><ele>1358.75</ele></trkpt><trkpt lat="45.8111" lon="6.71518"><ele>1360.85</ele></trkpt><trkpt lat="45.811" lon="6.71494"><ele>1363.54</ele></trkpt><trkpt lat="45.81089" lon="6.71471"><ele>1367.58</ele></trkpt><trkpt lat="45.81071" lon="6.71448"><ele>1370.65</ele></trkpt><trkpt lat="45.81055" lon="6.71427"><ele>1372.12</ele></trkpt><trkpt lat="45.81046" lon="6.714"><ele>1374.72</ele></trkpt><trkpt lat="45.81042" lon="6.71362"><ele>1378.75</ele></trkpt><trkpt lat="45.81031" lon="6.71338"><ele>1378.73</ele></trkpt><trkpt lat="45.81014" lon="6.71314"><ele>1379.09</ele></trkpt><trkpt lat="45.80999" lon="6.71292"><ele>1380.62</ele></trkpt><trkpt lat="45.80983" lon="6.71278"><ele>1381.8</ele></trkpt><trkpt lat="45.80964" lon="6.71292"><ele>1381.15</ele></trkpt><trkpt lat="45.80947" lon="6.71306"><ele>1384.57</ele></trkpt><trkpt lat="45.80927" lon="6.71305"><ele>1389.18</ele></trkpt><trkpt lat="45.80909" lon="6.71287"><ele>1393.95</ele></trkpt><trkpt lat="45.80891" lon="6.71265"><ele>1397.34</ele></trkpt><trkpt lat="45.80874" lon="6.71243"><ele>1400.31</ele></trkpt><trkpt lat="45.80863" lon="6.71221"><ele>1404.08</ele></trkpt><trkpt lat="45.80852" lon="6.71197"><ele>1407.04</ele></trkpt><trkpt lat="45.80835" lon="6.71175"><ele>1409.95</ele></trkpt><trkpt lat="45.80816" lon="6.71157"><ele>1413.78</ele></trkpt><trkpt lat="45.80811" lon="6.71138"><ele>1418.1</ele></trkpt><trkpt lat="45.80832" lon="6.7114"><ele>1419.57</ele></trkpt><trkpt lat="45.80852" lon="6.71138"><ele>1421.2</ele></trkpt><trkpt lat="45.80873" lon="6.71142"><ele>1422.14</ele></trkpt><trkpt lat="45.80892" lon="6.71146"><ele>1422.7</ele></trkpt><trkpt lat="45.80912" lon="6.71147"><ele>1423.73</ele></trkpt><trkpt lat="45.80931" lon="6.71147"><ele>1425.34</ele></trkpt><trkpt lat="45.80952" lon="6.71147"><ele>1426.55</ele></trkpt><trkpt lat="45.80972" lon="6.71148"><ele>1426.25</ele></trkpt><trkpt lat="45.80991" lon="6.7115"><ele>1424.39</ele></trkpt><trkpt lat="45.81005" lon="6.7114"><ele>1426.82</ele></trkpt><trkpt lat="45.80991" lon="6.71121"><ele>1432.58</ele></trkpt><trkpt lat="45.80972" lon="6.71108"><ele>1435.61</ele></trkpt><trkpt lat="45.80954" lon="6.71099"><ele>1438.15</ele></trkpt><trkpt lat="45.80932" lon="6.7109"><ele>1440.46</ele></trkpt><trkpt lat="45.80908" lon="6.7108"><ele>1442.77</ele></trkpt><trkpt lat="45.80888" lon="6.7107"><ele>1444.23</ele></trkpt><trkpt lat="45.80868" lon="6.71059"><ele>1445.65</ele></trkpt><trkpt lat="45.80845" lon="6.71048"><ele>1448.72</ele></trkpt><trkpt lat="45.80825" lon="6.71037"><ele>1453.45</ele></trkpt><trkpt lat="45.80807" lon="6.71027"><ele>1457.94</ele></trkpt><trkpt lat="45.80785" lon="6.71024"><ele>1462.09</ele></trkpt><trkpt lat="45.80764" lon="6.71027"><ele>1464.09</ele></trkpt><trkpt lat="45.80745" lon="6.71029"><ele>1468.3</ele></trkpt><trkpt lat="45.80724" lon="6.71032"><ele>1475</ele></trkpt><trkpt lat="45.80708" lon="6.71048"><ele>1474.28</ele></trkpt><trkpt lat="45.80689" lon="6.71066"><ele>1477.73</ele></trkpt><trkpt lat="45.80669" lon="6.71075"><ele>1479.39</ele></trkpt><trkpt lat="45.80649" lon="6.71071"><ele>1484.48</ele></trkpt><trkpt lat="45.80627" lon="6.7106"><ele>1489</ele></trkpt><trkpt lat="45.80606" lon="6.71051"><ele>1491.24</ele></trkpt><trkpt lat="45.80585" lon="6.71037"><ele>1492.7</ele></trkpt><trkpt lat="45.80569" lon="6.71012"><ele>1495.17</ele></trkpt><trkpt lat="45.80559" lon="6.70983"><ele>1498.1</ele></trkpt><trkpt lat="45.80552" lon="6.70954"><ele>1500.38</ele></trkpt><trkpt lat="45.80556" lon="6.70973"><ele>1498.63</ele></trkpt><trkpt lat="45.80563" lon="6.70996"><ele>1497.22</ele></trkpt><trkpt lat="45.80575" lon="6.71027"><ele>1493.57</ele></trkpt><trkpt lat="45.80592" lon="6.71045"><ele>1491.82</ele></trkpt><trkpt lat="45.80611" lon="6.71054"><ele>1491.59</ele></trkpt><trkpt lat="45.80631" lon="6.71063"><ele>1487.25</ele></trkpt><trkpt lat="45.80649" lon="6.71073"><ele>1482.51</ele></trkpt><trkpt lat="45.80669" lon="6.71081"><ele>1475.18</ele></trkpt><trkpt lat="45.80689" lon="6.71073"><ele>1473.83</ele></trkpt><trkpt lat="45.80699" lon="6.71048"><ele>1478.71</ele></trkpt><trkpt lat="45.80718" lon="6.71032"><ele>1478.82</ele></trkpt><trkpt lat="45.80737" lon="6.71031"><ele>1469.81</ele></trkpt><trkpt lat="45.8076" lon="6.7102"><ele>1469.09</ele></trkpt><trkpt lat="45.80776" lon="6.71024"><ele>1463.43</ele></trkpt><trkpt lat="45.80798" lon="6.7102"><ele>1460.63</ele></trkpt><trkpt lat="45.8082" lon="6.71034"><ele>1453.5</ele></trkpt><trkpt lat="45.8084" lon="6.71047"><ele>1448.51</ele></trkpt><trkpt lat="45.80861" lon="6.71057"><ele>1446.45</ele></trkpt><trkpt lat="45.8088" lon="6.71065"><ele>1445.14</ele></trkpt><trkpt lat="45.809" lon="6.71075"><ele>1443.55</ele></trkpt><trkpt lat="45.80922" lon="6.71085"><ele>1441.16</ele></trkpt><trkpt lat="45.80945" lon="6.71095"><ele>1439.52</ele></trkpt><trkpt lat="45.80967" lon="6.71102"><ele>1436.61</ele></trkpt><trkpt lat="45.80986" lon="6.71115"><ele>1433.59</ele></trkpt><trkpt lat="45.81003" lon="6.71129"><ele>1429.99</ele></trkpt><trkpt lat="45.8101" lon="6.71145"><ele>1422.87</ele></trkpt><trkpt lat="45.8099" lon="6.71149"><ele>1424.39</ele></trkpt><trkpt lat="45.80969" lon="6.71146"><ele>1426.25</ele></trkpt><trkpt lat="45.80949" lon="6.71147"><ele>1426.55</ele></trkpt><trkpt lat="45.80928" lon="6.71145"><ele>1424.91</ele></trkpt><trkpt lat="45.80908" lon="6.71145"><ele>1423.47</ele></trkpt><trkpt lat="45.80885" lon="6.71143"><ele>1423.16</ele></trkpt><trkpt lat="45.80866" lon="6.71139"><ele>1422.82</ele></trkpt><trkpt lat="45.80842" lon="6.71138"><ele>1420.37</ele></trkpt><trkpt lat="45.80822" lon="6.71139"><ele>1418.56</ele></trkpt><trkpt lat="45.80807" lon="6.71144"><ele>1416.76</ele></trkpt><trkpt lat="45.80821" lon="6.7116"><ele>1412.97</ele></trkpt><trkpt lat="45.80839" lon="6.71176"><ele>1410.39</ele></trkpt><trkpt lat="45.80855" lon="6.71202"><ele>1406.62</ele></trkpt><trkpt lat="45.80865" lon="6.71223"><ele>1403.21</ele></trkpt><trkpt lat="45.8088" lon="6.71252"><ele>1399.07</ele></trkpt><trkpt lat="45.80896" lon="6.7127"><ele>1397.2</ele></trkpt><trkpt lat="45.8091" lon="6.71288"><ele>1393.95</ele></trkpt><trkpt lat="45.80925" lon="6.71306"><ele>1389.78</ele></trkpt><trkpt lat="45.80947" lon="6.71305"><ele>1384.57</ele></trkpt><trkpt lat="45.80963" lon="6.71285"><ele>1385.1</ele></trkpt><trkpt lat="45.80979" lon="6.71274"><ele>1383.41</ele></trkpt><trkpt lat="45.80998" lon="6.71289"><ele>1380.65</ele></trkpt><trkpt lat="45.81013" lon="6.71311"><ele>1380.23</ele></trkpt><trkpt lat="45.81029" lon="6.71329"><ele>1380.75</ele></trkpt><trkpt lat="45.8104" lon="6.71353"><ele>1378.88</ele></trkpt><trkpt lat="45.81045" lon="6.71389"><ele>1375.57</ele></trkpt><trkpt lat="45.81052" lon="6.71423"><ele>1371.67</ele></trkpt><trkpt lat="45.81064" lon="6.71447"><ele>1369.6</ele></trkpt><trkpt lat="45.81082" lon="6.71465"><ele>1369.1</ele></trkpt><trkpt lat="45.81099" lon="6.71487"><ele>1366.61</ele></trkpt><trkpt lat="45.81112" lon="6.71516"><ele>1362.23</ele></trkpt><trkpt lat="45.81119" lon="6.71547"><ele>1358.75</ele></trkpt><trkpt lat="45.81134" lon="6.71574"><ele>1353.53</ele></trkpt><trkpt lat="45.81151" lon="6.71588"><ele>1351.49</ele></trkpt><trkpt lat="45.8117" lon="6.71606"><ele>1348.74</ele></trkpt><trkpt lat="45.81189" lon="6.71622"><ele>1345.05</ele></trkpt><trkpt lat="45.81206" lon="6.71638"><ele>1342.4</ele></trkpt><trkpt lat="45.81223" lon="6.71651"><ele>1337.27</ele></trkpt><trkpt lat="45.81244" lon="6.71664"><ele>1334.85</ele></trkpt><trkpt lat="45.81263" lon="6.7167"><ele>1331.57</ele></trkpt><trkpt lat="45.81282" lon="6.71673"><ele>1329.49</ele></trkpt><trkpt lat="45.81299" lon="6.7168"><ele>1327.25</ele></trkpt><trkpt lat="45.81319" lon="6.71693"><ele>1321.09</ele></trkpt><trkpt lat="45.81342" lon="6.71696"><ele>1317.16</ele></trkpt><trkpt lat="45.8136" lon="6.71692"><ele>1316.64</ele></trkpt><trkpt lat="45.81379" lon="6.71684"><ele>1317.18</ele></trkpt><trkpt lat="45.814" lon="6.71674"><ele>1315.38</ele></trkpt><trkpt lat="45.81418" lon="6.71658"><ele>1316.04</ele></trkpt><trkpt lat="45.81425" lon="6.71672"><ele>1308.65</ele></trkpt><trkpt lat="45.81407" lon="6.71692"><ele>1306.53</ele></trkpt><trkpt lat="45.81389" lon="6.71709"><ele>1304.91</ele></trkpt><trkpt lat="45.81368" lon="6.71723"><ele>1302.86</ele></trkpt><trkpt lat="45.8135" lon="6.71738"><ele>1299.17</ele></trkpt><trkpt lat="45.81331" lon="6.7175"><ele>1297.91</ele></trkpt><trkpt lat="45.81313" lon="6.71759"><ele>1294.63</ele></trkpt><trkpt lat="45.81293" lon="6.71762"><ele>1295.83</ele></trkpt><trkpt lat="45.8127" lon="6.71763"><ele>1295.02</ele></trkpt><trkpt lat="45.8125" lon="6.71771"><ele>1292.45</ele></trkpt><trkpt lat="45.81232" lon="6.71781"><ele>1289.52</ele></trkpt><trkpt lat="45.81213" lon="6.71784"><ele>1287.79</ele></trkpt><trkpt lat="45.81223" lon="6.71803"><ele>1282.73</ele></trkpt><trkpt lat="45.81242" lon="6.71807"><ele>1281.7</ele></trkpt><trkpt lat="45.81261" lon="6.71816"><ele>1279.67</ele></trkpt><trkpt lat="45.81278" lon="6.71826"><ele>1277.43</ele></trkpt><trkpt lat="45.81298" lon="6.71831"><ele>1274.39</ele></trkpt><trkpt lat="45.81319" lon="6.7183"><ele>1272.57</ele></trkpt><trkpt lat="45.81339" lon="6.71821"><ele>1271.1</ele></trkpt><trkpt lat="45.81362" lon="6.71824"><ele>1265.61</ele></trkpt><trkpt lat="45.81382" lon="6.71818"><ele>1264.31</ele></trkpt><trkpt lat="45.81402" lon="6.71812"><ele>1262.59</ele></trkpt><trkpt lat="45.81425" lon="6.7181"><ele>1259.73</ele></trkpt><trkpt lat="45.81432" lon="6.71829"><ele>1254.08</ele></trkpt><trkpt lat="45.81412" lon="6.71838"><ele>1254.42</ele></trkpt><trkpt lat="45.81394" lon="6.71847"><ele>1254.35</ele></trkpt><trkpt lat="45.81376" lon="6.71865"><ele>1253.53</ele></trkpt><trkpt lat="45.8136" lon="6.71886"><ele>1250.77</ele></trkpt><trkpt lat="45.81344" lon="6.71906"><ele>1249.62</ele></trkpt><trkpt lat="45.81326" lon="6.71928"><ele>1248.41</ele></trkpt><trkpt lat="45.8131" lon="6.71946"><ele>1246.49</ele></trkpt><trkpt lat="45.81293" lon="6.71964"><ele>1243.72</ele></trkpt><trkpt lat="45.81269" lon="6.71976"><ele>1241.19</ele></trkpt><trkpt lat="45.8126" lon="6.71994"><ele>1236.8</ele></trkpt><trkpt lat="45.81277" lon="6.72007"><ele>1231.68</ele></trkpt><trkpt lat="45.81298" lon="6.72019"><ele>1228.07</ele></trkpt><trkpt lat="45.81317" lon="6.72025"><ele>1223.45</ele></trkpt><trkpt lat="45.81338" lon="6.72021"><ele>1221.55</ele></trkpt><trkpt lat="45.81355" lon="6.72008"><ele>1221.7</ele></trkpt><trkpt lat="45.81377" lon="6.71996"><ele>1221.02</ele></trkpt><trkpt lat="45.81393" lon="6.72012"><ele>1217.83</ele></trkpt><trkpt lat="45.81395" lon="6.72033"><ele>1216.35</ele></trkpt><trkpt lat="45.81382" lon="6.72053"><ele>1213.24</ele></trkpt><trkpt lat="45.81371" lon="6.72076"><ele>1209.43</ele></trkpt><trkpt lat="45.81361" lon="6.72101"><ele>1206.29</ele></trkpt><trkpt lat="45.81346" lon="6.72123"><ele>1201.39</ele></trkpt><trkpt lat="45.81326" lon="6.72136"><ele>1197.95</ele></trkpt><trkpt lat="45.81299" lon="6.72134"><ele>1195.57</ele></trkpt></trkseg></trk></gpx>
