<?xml version="1.0"?>
<gpx xmlns="http://www.topografix.com/GPX/1/1" xmlns:xsi="http://www.w3.org/2001/XMLSchema-instance" xsi:schemaLocation="http://www.topografix.com/GPX/1/1 http://www.topografix.com/GPX/1/1/gpx.xsd" version="1.1" creator="EditGPX">
  <trk>
    <name>2013-08-16T11:11:42Z</name>
    <trkseg>
      <trkpt lat="45.789883475452775" lon="6.71306175659218">
        <ele>1259</ele>
      </trkpt>
      <trkpt lat="45.79042211407039" lon="6.71344799469032">
        <ele>1247</ele>
      </trkpt>
      <trkpt lat="45.791215100340274" lon="6.714134640197997">
        <ele>1252</ele>
      </trkpt>
      <trkpt lat="45.791888381712866" lon="6.7152718968201555">
        <ele>1217</ele>
      </trkpt>
      <trkpt lat="45.79235219303833" lon="6.71569032142644">
        <ele>1213</ele>
      </trkpt>
      <trkpt lat="45.793444378654755" lon="6.716258949737539">
        <ele>1212</ele>
      </trkpt>
      <trkpt lat="45.79384459199778" lon="6.716521806220968">
        <ele>1210</ele>
      </trkpt>
      <trkpt lat="45.79470111370075" lon="6.717015332679643">
        <ele>1202</ele>
      </trkpt>
      <trkpt lat="45.79465623079445" lon="6.71728623579009">
        <ele>1202</ele>
      </trkpt>
      <trkpt lat="45.794499140337194" lon="6.717460579376016">
        <ele>1202</ele>
      </trkpt>
      <trkpt lat="45.7944542572679" lon="6.7175598211095275">
        <ele>1201</ele>
      </trkpt>
      <trkpt lat="45.79459638686282" lon="6.7177448935315045">
        <ele>1201</ele>
      </trkpt>
      <trkpt lat="45.79501903325377" lon="6.717986292342845">
        <ele>1197</ele>
      </trkpt>
      <trkpt lat="45.79561372495974" lon="6.71830011079756">
        <ele>1197</ele>
      </trkpt>
      <trkpt lat="45.79606254468652" lon="6.718764132957086">
        <ele>1194</ele>
      </trkpt>
      <trkpt lat="45.796309393995486" lon="6.718839234809413">
        <ele>1194</ele>
      </trkpt>
      <trkpt lat="45.796705846657794" lon="6.7179970211789275">
        <ele>1193</ele>
      </trkpt>
      <trkpt lat="45.79627199265514" lon="6.717707342605298">
        <ele>1196</ele>
      </trkpt>
      <trkpt lat="45.795314509800626" lon="6.717203087310576">
        <ele>1201</ele>
      </trkpt>
      <trkpt lat="45.794704853941745" lon="6.717026061515702">
        <ele>1202</ele>
      </trkpt>
      <trkpt lat="45.79463378932774" lon="6.71728623579007">
        <ele>1202</ele>
      </trkpt>
      <trkpt lat="45.79450288059111" lon="6.7174605793759765">
        <ele>1202</ele>
      </trkpt>
      <trkpt lat="45.794446776752714" lon="6.71757859657263">
        <ele>1201</ele>
      </trkpt>
      <trkpt lat="45.79460386735772" lon="6.717760986785633">
        <ele>1201</ele>
      </trkpt>
      <trkpt lat="45.79502277347297" lon="6.718002385596947">
        <ele>1197</ele>
      </trkpt>
      <trkpt lat="45.79560250442021" lon="6.718297428588551">
        <ele>1197</ele>
      </trkpt>
      <trkpt lat="45.79607002498463" lon="6.718758768539055">
        <ele>1194</ele>
      </trkpt>
      <trkpt lat="45.79633183478755" lon="6.718860692481582">
        <ele>1194</ele>
      </trkpt>
      <trkpt lat="45.79678438883149" lon="6.71901089618642">
        <ele>1191</ele>
      </trkpt>
      <trkpt lat="45.797287430129266" lon="6.719472236136916">
        <ele>1191</ele>
      </trkpt>
      <trkpt lat="45.797921367899455" lon="6.719820923308801">
        <ele>1192</ele>
      </trkpt>
      <trkpt lat="45.798815226601384" lon="6.72031444976742">
        <ele>1191</ele>
      </trkpt>
      <trkpt lat="45.79961931318213" lon="6.721092290381698">
        <ele>1188</ele>
      </trkpt>
      <trkpt lat="45.79997460355615" lon="6.721430248717488">
        <ele>1188</ele>
      </trkpt>
      <trkpt lat="45.80027005382603" lon="6.721875495413857">
        <ele>1186</ele>
      </trkpt>
      <trkpt lat="45.800872169147034" lon="6.7221490807333515">
        <ele>1183</ele>
      </trkpt>
      <trkpt lat="45.8014443596641" lon="6.722449488143037">
        <ele>1180</ele>
      </trkpt>
      <trkpt lat="45.80143314029866" lon="6.722562140921606">
        <ele>1181</ele>
      </trkpt>
      <trkpt lat="45.801395742397574" lon="6.7228679127493">
        <ele>1182</ele>
      </trkpt>
      <trkpt lat="45.80210629822523" lon="6.723382896880035">
        <ele>1181</ele>
      </trkpt>
      <trkpt lat="45.802255887770805" lon="6.724133915404143">
        <ele>1179</ele>
      </trkpt>
      <trkpt lat="45.80231572347645" lon="6.724434322813767">
        <ele>1180</ele>
      </trkpt>
      <trkpt lat="45.802749530422204" lon="6.724691814879136">
        <ele>1179</ele>
      </trkpt>
      <trkpt lat="45.80309358180499" lon="6.7245416111743666">
        <ele>1178</ele>
      </trkpt>
      <trkpt lat="45.803602175608816" lon="6.724369949797426">
        <ele>1178</ele>
      </trkpt>
      <trkpt lat="45.80399109714987" lon="6.724713272551218">
        <ele>1178</ele>
      </trkpt>
      <trkpt lat="45.8050531382964" lon="6.724927849272419">
        <ele>1177</ele>
      </trkpt>
      <trkpt lat="45.80684809138856" lon="6.725850529173468">
        <ele>1173</ele>
      </trkpt>
      <trkpt lat="45.80512792916287" lon="6.7249707646166765">
        <ele>1176</ele>
      </trkpt>
      <trkpt lat="45.80399109714987" lon="6.724691814879136">
        <ele>1178</ele>
      </trkpt>
      <trkpt lat="45.80366200986853" lon="6.724369949797426">
        <ele>1178</ele>
      </trkpt>
      <trkpt lat="45.80277944801829" lon="6.724691814879136">
        <ele>1179</ele>
      </trkpt>
      <trkpt lat="45.80234564130548" lon="6.724477238158026">
        <ele>1180</ele>
      </trkpt>
      <trkpt lat="45.799458496794" lon="6.723661846617577">
        <ele>1193</ele>
      </trkpt>
      <trkpt lat="45.79746882308879" lon="6.720765060881924">
        <ele>1191</ele>
      </trkpt>
      <trkpt lat="45.79529954900028" lon="6.719284481505881">
        <ele>1207</ele>
      </trkpt>
      <trkpt lat="45.79447669880665" lon="6.718469089965432">
        <ele>1209</ele>
      </trkpt>
      <trkpt lat="45.79381840990397" lon="6.718383259277005">
        <ele>1228</ele>
      </trkpt>
      <trkpt lat="45.79298057641872" lon="6.717889732818357">
        <ele>1241</ele>
      </trkpt>
      <trkpt lat="45.79232226984352" lon="6.716902679900964">
        <ele>1233</ele>
      </trkpt>
      <trkpt lat="45.79184349654108" lon="6.716623730163513">
        <ele>1228</ele>
      </trkpt>
      <trkpt lat="45.79161907013984" lon="6.716065830688431">
        <ele>1231</ele>
      </trkpt>
      <trkpt lat="45.791873419993365" lon="6.715979999999988">
        <ele>1217</ele>
      </trkpt>
      <trkpt lat="45.79211280703002" lon="6.715593761901864">
        <ele>1215</ele>
      </trkpt>
    </trkseg>
  </trk>
</gpx>
