<?xml version="1.0"?>
<gpx xmlns="http://www.topografix.com/GPX/1/1" xmlns:xsi="http://www.w3.org/2001/XMLSchema-instance" xsi:schemaLocation="http://www.topografix.com/GPX/1/1 http://www.topografix.com/GPX/1/1/gpx.xsd" version="1.1" creator="EditGPX">
  <trk>
    <name>2013-08-14T10:58:38Z</name>
    <trkseg>
      <trkpt lat="45.82249615512818" lon="6.726793057593354">
        <ele>1161</ele>
      </trkpt>
      <trkpt lat="45.82225689862895" lon="6.726621396216413">
        <ele>1154</ele>
      </trkpt>
      <trkpt lat="45.82221203792083" lon="6.726213700446278">
        <ele>1150</ele>
      </trkpt>
      <trkpt lat="45.82266064337533" lon="6.726106412085678">
        <ele>1149</ele>
      </trkpt>
      <trkpt lat="45.82304943184551" lon="6.725956208380822">
        <ele>1147</ele>
      </trkpt>
      <trkpt lat="45.8234830773201" lon="6.725741631659622">
        <ele>1134</ele>
      </trkpt>
      <trkpt lat="45.822914851528544" lon="6.725634343299112">
        <ele>1136</ele>
      </trkpt>
      <trkpt lat="45.822226991494006" lon="6.72556997028277">
        <ele>1137</ele>
      </trkpt>
      <trkpt lat="45.82206250196565" lon="6.725527054938512">
        <ele>1137</ele>
      </trkpt>
      <trkpt lat="45.821583984211784" lon="6.726256615790446">
        <ele>1145</ele>
      </trkpt>
      <trkpt lat="45.821000785138104" lon="6.7267930575934445">
        <ele>1153</ele>
      </trkpt>
      <trkpt lat="45.81984932287579" lon="6.727157838019412">
        <ele>1146</ele>
      </trkpt>
      <trkpt lat="45.81938574043667" lon="6.726943261298212">
        <ele>1144</ele>
      </trkpt>
      <trkpt lat="45.818817472826005" lon="6.727072007330896">
        <ele>1145</ele>
      </trkpt>
      <trkpt lat="45.817994969960225" lon="6.72758699146172">
        <ele>1150</ele>
      </trkpt>
      <trkpt lat="45.81691822057211" lon="6.7273938724126054">
        <ele>1155</ele>
      </trkpt>
      <trkpt lat="45.817157500013536" lon="6.7267930575934445">
        <ele>1153</ele>
      </trkpt>
      <trkpt lat="45.81688831057011" lon="6.726599938544329">
        <ele>1155</ele>
      </trkpt>
      <trkpt lat="45.81666398503986" lon="6.7267286845770125">
        <ele>1156</ele>
      </trkpt>
      <trkpt lat="45.81614055528807" lon="6.726514107855904">
        <ele>1158</ele>
      </trkpt>
      <trkpt lat="45.815691897299295" lon="6.726213700446278">
        <ele>1161</ele>
      </trkpt>
      <trkpt lat="45.815258191140586" lon="6.7258918353645685">
        <ele>1162</ele>
      </trkpt>
      <trkpt lat="45.81464501460103" lon="6.726213700446278">
        <ele>1163</ele>
      </trkpt>
      <trkpt lat="45.814241211729524" lon="6.726664311560671">
        <ele>1162</ele>
      </trkpt>
      <trkpt lat="45.81382245010369" lon="6.7267930575934445">
        <ele>1165</ele>
      </trkpt>
      <trkpt lat="45.81311952172372" lon="6.7267286845770125">
        <ele>1165</ele>
      </trkpt>
      <trkpt lat="45.81252127781644" lon="6.726986176642471">
        <ele>1166</ele>
      </trkpt>
      <trkpt lat="45.811384596687446" lon="6.727136380347237">
        <ele>1164</ele>
      </trkpt>
      <trkpt lat="45.81120511859911" lon="6.727222211035754">
        <ele>1164</ele>
      </trkpt>
      <trkpt lat="45.81124998817541" lon="6.727651364478063">
        <ele>1166</ele>
      </trkpt>
      <trkpt lat="45.80951500490115" lon="6.7267501422491875">
        <ele>1168</ele>
      </trkpt>
      <trkpt lat="45.80878210779921" lon="6.726921803626129">
        <ele>1171</ele>
      </trkpt>
      <trkpt lat="45.80712183584012" lon="6.7258489200203115">
        <ele>1174</ele>
      </trkpt>
      <trkpt lat="45.805521346658594" lon="6.725119359168378">
        <ele>1175</ele>
      </trkpt>
      <trkpt lat="45.80498285397808" lon="6.72486186710301">
        <ele>1177</ele>
      </trkpt>
      <trkpt lat="45.804429397744194" lon="6.724818951758753">
        <ele>1177</ele>
      </trkpt>
      <trkpt lat="45.80381610198121" lon="6.724582917365469">
        <ele>1178</ele>
      </trkpt>
      <trkpt lat="45.80348701366678" lon="6.724282509955843">
        <ele>1178</ele>
      </trkpt>
      <trkpt lat="45.80294850132239" lon="6.7245614596932946">
        <ele>1178</ele>
      </trkpt>
      <trkpt lat="45.80193129713618" lon="6.724454171332785">
        <ele>1181</ele>
      </trkpt>
      <trkpt lat="45.800540090753806" lon="6.723982102546218">
        <ele>1185</ele>
      </trkpt>
      <trkpt lat="45.799582681236295" lon="6.723681695136593">
        <ele>1193</ele>
      </trkpt>
      <trkpt lat="45.79934332628671" lon="6.723617322120251">
        <ele>1193</ele>
      </trkpt>
      <trkpt lat="45.79917876916206" lon="6.723016507301001">
        <ele>1189</ele>
      </trkpt>
      <trkpt lat="45.798834693603965" lon="6.722265488776894">
        <ele>1191</ele>
      </trkpt>
      <trkpt lat="45.79799693553554" lon="6.721621758613384">
        <ele>1189</ele>
      </trkpt>
      <trkpt lat="45.796904839140986" lon="6.720527417335484">
        <ele>1190</ele>
      </trkpt>
      <trkpt lat="45.795752878653225" lon="6.719647652778781">
        <ele>1203</ele>
      </trkpt>
      <trkpt lat="45.79455601136457" lon="6.718574769172965">
        <ele>1210</ele>
      </trkpt>
      <trkpt lat="45.79427175160626" lon="6.718338734779682">
        <ele>1208</ele>
      </trkpt>
      <trkpt lat="45.7935685765002" lon="6.718338734779682">
        <ele>1231</ele>
      </trkpt>
      <trkpt lat="45.79246143175577" lon="6.717222935829607">
        <ele>1238</ele>
      </trkpt>
      <trkpt lat="45.79229685430839" lon="6.7167723247152145">
        <ele>1230</ele>
      </trkpt>
      <trkpt lat="45.7917731955592" lon="6.716450459633415">
        <ele>1225</ele>
      </trkpt>
      <trkpt lat="45.79163853965705" lon="6.71604276386319">
        <ele>1229</ele>
      </trkpt>
      <trkpt lat="45.79101014114538" lon="6.7154848643881975">
        <ele>1227</ele>
      </trkpt>
      <trkpt lat="45.790277000593235" lon="6.7148625918967735">
        <ele>1243</ele>
      </trkpt>
      <trkpt lat="45.78876580290837" lon="6.714154488717013">
        <ele>1271</ele>
      </trkpt>
      <trkpt lat="45.78770345129879" lon="6.713489300881421">
        <ele>1294</ele>
      </trkpt>
      <trkpt lat="45.78667100568592" lon="6.712759740029397">
        <ele>1301</ele>
      </trkpt>
      <trkpt lat="45.78596773468259" lon="6.712738282357314">
        <ele>1332</ele>
      </trkpt>
      <trkpt lat="45.78514474670936" lon="6.71250224796403">
        <ele>1348</ele>
      </trkpt>
      <trkpt lat="45.78459109341903" lon="6.712523705636205">
        <ele>1360</ele>
      </trkpt>
      <trkpt lat="45.78430678283532" lon="6.712845570717913">
        <ele>1365</ele>
      </trkpt>
      <trkpt lat="45.783857868435895" lon="6.712974316750597">
        <ele>1377</ele>
      </trkpt>
      <trkpt lat="45.783019885218295" lon="6.714497811470897">
        <ele>1386</ele>
      </trkpt>
      <trkpt lat="45.78276549496404" lon="6.714841134224691">
        <ele>1387</ele>
      </trkpt>
      <trkpt lat="45.781673100087495" lon="6.715377576027598">
        <ele>1399</ele>
      </trkpt>
      <trkpt lat="45.78279542328913" lon="6.714819676552605">
        <ele>1387</ele>
      </trkpt>
      <trkpt lat="45.78384290456053" lon="6.71303868976694">
        <ele>1377</ele>
      </trkpt>
      <trkpt lat="45.78438160155066" lon="6.712824113045829">
        <ele>1364</ele>
      </trkpt>
      <trkpt lat="45.78469583905768" lon="6.712523705636205">
        <ele>1359</ele>
      </trkpt>
      <trkpt lat="45.785473943356905" lon="6.712523705636205">
        <ele>1347</ele>
      </trkpt>
      <trkpt lat="45.78592284474282" lon="6.712738282357314">
        <ele>1332</ele>
      </trkpt>
      <trkpt lat="45.78671589502321" lon="6.712802655373656">
        <ele>1302</ele>
      </trkpt>
      <trkpt lat="45.79026203844096" lon="6.714884049568947">
        <ele>1244</ele>
      </trkpt>
      <trkpt lat="45.79159365428404" lon="6.715956933174764">
        <ele>1226</ele>
      </trkpt>
      <trkpt lat="45.79166846321918" lon="6.716128594551706">
        <ele>1219</ele>
      </trkpt>
      <trkpt lat="45.79214723802461" lon="6.715785271797823">
        <ele>1214</ele>
      </trkpt>
      <trkpt lat="45.79175823380856" lon="6.7150127956016314">
        <ele>1217</ele>
      </trkpt>
      <trkpt lat="45.791249531889804" lon="6.714261777077613">
        <ele>1234</ele>
      </trkpt>
      <trkpt lat="45.790172265441676" lon="6.71321035114388">
        <ele>1264</ele>
      </trkpt>
      <trkpt lat="45.789828134271396" lon="6.713060147439112">
        <ele>1259</ele>
      </trkpt>
      <trkpt lat="45.79021715195939" lon="6.7131674357996225">
        <ele>1267</ele>
      </trkpt>
      <trkpt lat="45.791384188731804" lon="6.714433438454464">
        <ele>1234</ele>
      </trkpt>
      <trkpt lat="45.7919676979544" lon="6.715377576027598">
        <ele>1217</ele>
      </trkpt>
      <trkpt lat="45.79210235306128" lon="6.715785271797823">
        <ele>1214</ele>
      </trkpt>
      <trkpt lat="45.79220708458657" lon="6.715935475502591">
        <ele>1215</ele>
      </trkpt>
      <trkpt lat="45.792476393318246" lon="6.715806729469907">
        <ele>1209</ele>
      </trkpt>
      <trkpt lat="45.792910276870515" lon="6.715935475502591">
        <ele>1211</ele>
      </trkpt>
      <trkpt lat="45.79338904100878" lon="6.7161500522237905">
        <ele>1213</ele>
      </trkpt>
      <trkpt lat="45.7937032277392" lon="6.716343171272816">
        <ele>1212</ele>
      </trkpt>
      <trkpt lat="45.79543870347821" lon="6.717137105141181">
        <ele>1201</ele>
      </trkpt>
      <trkpt lat="45.79570799659381" lon="6.717287308845949">
        <ele>1200</ele>
      </trkpt>
      <trkpt lat="45.79570799659381" lon="6.717265851173865">
        <ele>1200</ele>
      </trkpt>
      <trkpt lat="45.79570799659381" lon="6.717308766518033">
        <ele>1200</ele>
      </trkpt>
    </trkseg>
  </trk>
</gpx>
